COSMOS 2242             
1 22626U 93024A   26085.88594778  .00002128  00000+0  18415-3 0  9997
2 22626  82.5160 250.2630 0015005 245.4024 114.5635 14.96620418782960
SL-16 R/B               
1 22803U 93059B   26085.91045262 -.00000135  00000+0 -42941-4 0  9995
2 22803  70.9924 334.8141 0017517 191.6128 168.4594 14.17235347681976
ARIANE 40 R/B           
1 22830U 93061H   26085.66734146  .00000199  00000+0  88589-4 0  9992
2 22830  98.4885 154.2175 0009893 229.2191 130.8135 14.32869712696532
COSMOS 2278             
1 23087U 94023A   26085.57137596 -.00000254  00000+0 -10804-3 0  9990
2 23087  71.0523 139.7812 0009069 346.5632  13.5248 14.14376287647197
SL-16 R/B               
1 23088U 94023B   26085.89304587  .00000335  00000+0  19773-3 0  9994
2 23088  71.0012  34.7560 0005448 269.3967  90.6531 14.15013863648523
SL-16 R/B               
1 23343U 94074B   26085.71642789  .00000437  00000+0  65102-4 0  9995
2 23343  97.7085 115.8430 0007138 154.4778 341.8931 14.79426449689765
SL-16 R/B               
1 23405U 94077B   26085.86793564  .00000012  00000+0  30778-4 0  9991
2 23405  70.9837 316.3514 0002066 198.0433 162.0617 14.15569135618665
ARIANE 40+ R/B          
1 23561U 95021B   26085.48594631  .00000288  00000+0  10577-3 0  9995
2 23561  98.4468 156.7386 0007978  93.1506 277.5028 14.39784191621668
SL-16 R/B               
1 23705U 95058B   26085.59308020 -.00000230  00000+0 -93377-4 0  9991
2 23705  71.0209 144.7695 0010118  94.4529 265.7750 14.15499957570242
SL-16 R/B               
1 24298U 96051B   26085.59649770  .00000085  00000+0  72555-4 0  9994
2 24298  70.7589 139.4557 0013686 120.9279 239.3188 14.12420353524034
ORBVIEW 2 (SEASTAR)     
1 24883U 97037A   26085.91303144  .00000311  00000+0  12419-3 0  9991
2 24883  98.8598 250.6839 0002505  35.3928 324.7423 14.35506747510945
SL-16 R/B               
1 25400U 98043G   26085.36028500  .00000078  00000+0  51813-4 0  9996
2 25400  98.8282  38.8447 0009328 332.1155  27.9523 14.26053525441365
