CCSDS_OMM_VERS = 2.0
CREATION_DATE  = 
ORIGINATOR     = 

OBJECT_NAME    = COSMOS 2242
OBJECT_ID      = 1993-024A
CENTER_NAME    = EARTH
REF_FRAME      = TEME
TIME_SYSTEM    = UTC
MEAN_ELEMENT_THEORY = SGP/SGP4

EPOCH          = 2026-03-26T21:15:45.888192
MEAN_MOTION    = 14.96620418
ECCENTRICITY   = .0015005
INCLINATION    = 82.5160
RA_OF_ASC_NODE = 250.2630
ARG_OF_PERICENTER = 245.4024
MEAN_ANOMALY   = 114.5635

EPHEMERIS_TYPE = 0
CLASSIFICATION_TYPE = U
NORAD_CAT_ID   = 22626
ELEMENT_SET_NO = 999
REV_AT_EPOCH   = 78296
BSTAR          = .18415E-3
MEAN_MOTION_DOT = .2128E-4
MEAN_MOTION_DDOT = 0

CCSDS_OMM_VERS = 2.0
CREATION_DATE  = 
ORIGINATOR     = 

OBJECT_NAME    = SL-16 R/B
OBJECT_ID      = 1993-059B
CENTER_NAME    = EARTH
REF_FRAME      = TEME
TIME_SYSTEM    = UTC
MEAN_ELEMENT_THEORY = SGP/SGP4

EPOCH          = 2026-03-26T21:51:03.106368
MEAN_MOTION    = 14.17235347
ECCENTRICITY   = .0017517
INCLINATION    = 70.9924
RA_OF_ASC_NODE = 334.8141
ARG_OF_PERICENTER = 191.6128
MEAN_ANOMALY   = 168.4594

EPHEMERIS_TYPE = 0
CLASSIFICATION_TYPE = U
NORAD_CAT_ID   = 22803
ELEMENT_SET_NO = 999
REV_AT_EPOCH   = 68197
BSTAR          = -.42941E-4
MEAN_MOTION_DOT = -.135E-5
MEAN_MOTION_DDOT = 0

CCSDS_OMM_VERS = 2.0
CREATION_DATE  = 
ORIGINATOR     = 

OBJECT_NAME    = ARIANE 40 R/B
OBJECT_ID      = 1993-061H
CENTER_NAME    = EARTH
REF_FRAME      = TEME
TIME_SYSTEM    = UTC
MEAN_ELEMENT_THEORY = SGP/SGP4

EPOCH          = 2026-03-26T16:00:58.302144
MEAN_MOTION    = 14.32869712
ECCENTRICITY   = .0009893
INCLINATION    = 98.4885
RA_OF_ASC_NODE = 154.2175
ARG_OF_PERICENTER = 229.2191
MEAN_ANOMALY   = 130.8135

EPHEMERIS_TYPE = 0
CLASSIFICATION_TYPE = U
NORAD_CAT_ID   = 22830
ELEMENT_SET_NO = 999
REV_AT_EPOCH   = 69653
BSTAR          = .88589E-4
MEAN_MOTION_DOT = .199E-5
MEAN_MOTION_DDOT = 0

CCSDS_OMM_VERS = 2.0
CREATION_DATE  = 
ORIGINATOR     = 

OBJECT_NAME    = COSMOS 2278
OBJECT_ID      = 1994-023A
CENTER_NAME    = EARTH
REF_FRAME      = TEME
TIME_SYSTEM    = UTC
MEAN_ELEMENT_THEORY = SGP/SGP4

EPOCH          = 2026-03-26T13:42:46.882944
MEAN_MOTION    = 14.14376287
ECCENTRICITY   = .0009069
INCLINATION    = 71.0523
RA_OF_ASC_NODE = 139.7812
ARG_OF_PERICENTER = 346.5632
MEAN_ANOMALY   = 13.5248

EPHEMERIS_TYPE = 0
CLASSIFICATION_TYPE = U
NORAD_CAT_ID   = 23087
ELEMENT_SET_NO = 999
REV_AT_EPOCH   = 64719
BSTAR          = -.10804E-3
MEAN_MOTION_DOT = -.254E-5
MEAN_MOTION_DDOT = 0

CCSDS_OMM_VERS = 2.0
CREATION_DATE  = 
ORIGINATOR     = 

OBJECT_NAME    = SL-16 R/B
OBJECT_ID      = 1994-023B
CENTER_NAME    = EARTH
REF_FRAME      = TEME
TIME_SYSTEM    = UTC
MEAN_ELEMENT_THEORY = SGP/SGP4

EPOCH          = 2026-03-26T21:25:59.163168
MEAN_MOTION    = 14.15013863
ECCENTRICITY   = .0005448
INCLINATION    = 71.0012
RA_OF_ASC_NODE = 34.7560
ARG_OF_PERICENTER = 269.3967
MEAN_ANOMALY   = 90.6531

EPHEMERIS_TYPE = 0
CLASSIFICATION_TYPE = U
NORAD_CAT_ID   = 23088
ELEMENT_SET_NO = 999
REV_AT_EPOCH   = 64852
BSTAR          = .19773E-3
MEAN_MOTION_DOT = .335E-5
MEAN_MOTION_DDOT = 0

CCSDS_OMM_VERS = 2.0
CREATION_DATE  = 
ORIGINATOR     = 

OBJECT_NAME    = SL-16 R/B
OBJECT_ID      = 1994-074B
CENTER_NAME    = EARTH
REF_FRAME      = TEME
TIME_SYSTEM    = UTC
MEAN_ELEMENT_THEORY = SGP/SGP4

EPOCH          = 2026-03-26T17:11:39.369696
MEAN_MOTION    = 14.79426449
ECCENTRICITY   = .0007138
INCLINATION    = 97.7085
RA_OF_ASC_NODE = 115.8430
ARG_OF_PERICENTER = 154.4778
MEAN_ANOMALY   = 341.8931

EPHEMERIS_TYPE = 0
CLASSIFICATION_TYPE = U
NORAD_CAT_ID   = 23343
ELEMENT_SET_NO = 999
REV_AT_EPOCH   = 68976
BSTAR          = .65102E-4
MEAN_MOTION_DOT = .437E-5
MEAN_MOTION_DDOT = 0

CCSDS_OMM_VERS = 2.0
CREATION_DATE  = 
ORIGINATOR     = 

OBJECT_NAME    = SL-16 R/B
OBJECT_ID      = 1994-077B
CENTER_NAME    = EARTH
REF_FRAME      = TEME
TIME_SYSTEM    = UTC
MEAN_ELEMENT_THEORY = SGP/SGP4

EPOCH          = 2026-03-26T20:49:49.639296
MEAN_MOTION    = 14.15569135
ECCENTRICITY   = .0002066
INCLINATION    = 70.9837
RA_OF_ASC_NODE = 316.3514
ARG_OF_PERICENTER = 198.0433
MEAN_ANOMALY   = 162.0617

EPHEMERIS_TYPE = 0
CLASSIFICATION_TYPE = U
NORAD_CAT_ID   = 23405
ELEMENT_SET_NO = 999
REV_AT_EPOCH   = 61866
BSTAR          = .30778E-4
MEAN_MOTION_DOT = .12E-6
MEAN_MOTION_DDOT = 0

CCSDS_OMM_VERS = 2.0
CREATION_DATE  = 
ORIGINATOR     = 

OBJECT_NAME    = ARIANE 40+ R/B
OBJECT_ID      = 1995-021B
CENTER_NAME    = EARTH
REF_FRAME      = TEME
TIME_SYSTEM    = UTC
MEAN_ELEMENT_THEORY = SGP/SGP4

EPOCH          = 2026-03-26T11:39:45.761184
MEAN_MOTION    = 14.39784191
ECCENTRICITY   = .0007978
INCLINATION    = 98.4468
RA_OF_ASC_NODE = 156.7386
ARG_OF_PERICENTER = 93.1506
MEAN_ANOMALY   = 277.5028

EPHEMERIS_TYPE = 0
CLASSIFICATION_TYPE = U
NORAD_CAT_ID   = 23561
ELEMENT_SET_NO = 999
REV_AT_EPOCH   = 62166
BSTAR          = .10577E-3
MEAN_MOTION_DOT = .288E-5
MEAN_MOTION_DDOT = 0

CCSDS_OMM_VERS = 2.0
CREATION_DATE  = 
ORIGINATOR     = 

OBJECT_NAME    = SL-16 R/B
OBJECT_ID      = 1995-058B
CENTER_NAME    = EARTH
REF_FRAME      = TEME
TIME_SYSTEM    = UTC
MEAN_ELEMENT_THEORY = SGP/SGP4

EPOCH          = 2026-03-26T14:14:02.129280
MEAN_MOTION    = 14.15499957
ECCENTRICITY   = .0010118
INCLINATION    = 71.0209
RA_OF_ASC_NODE = 144.7695
ARG_OF_PERICENTER = 94.4529
MEAN_ANOMALY   = 265.7750

EPHEMERIS_TYPE = 0
CLASSIFICATION_TYPE = U
NORAD_CAT_ID   = 23705
ELEMENT_SET_NO = 999
REV_AT_EPOCH   = 57024
BSTAR          = -.93377E-4
MEAN_MOTION_DOT = -.23E-5
MEAN_MOTION_DDOT = 0

CCSDS_OMM_VERS = 2.0
CREATION_DATE  = 
ORIGINATOR     = 

OBJECT_NAME    = SL-16 R/B
OBJECT_ID      = 1996-051B
CENTER_NAME    = EARTH
REF_FRAME      = TEME
TIME_SYSTEM    = UTC
MEAN_ELEMENT_THEORY = SGP/SGP4

EPOCH          = 2026-03-26T14:18:57.401280
MEAN_MOTION    = 14.12420353
ECCENTRICITY   = .0013686
INCLINATION    = 70.7589
RA_OF_ASC_NODE = 139.4557
ARG_OF_PERICENTER = 120.9279
MEAN_ANOMALY   = 239.3188

EPHEMERIS_TYPE = 0
CLASSIFICATION_TYPE = U
NORAD_CAT_ID   = 24298
ELEMENT_SET_NO = 999
REV_AT_EPOCH   = 52403
BSTAR          = .72555E-4
MEAN_MOTION_DOT = .85E-6
MEAN_MOTION_DDOT = 0

CCSDS_OMM_VERS = 2.0
CREATION_DATE  = 
ORIGINATOR     = 

OBJECT_NAME    = ORBVIEW 2 (SEASTAR)
OBJECT_ID      = 1997-037A
CENTER_NAME    = EARTH
REF_FRAME      = TEME
TIME_SYSTEM    = UTC
MEAN_ELEMENT_THEORY = SGP/SGP4

EPOCH          = 2026-03-26T21:54:45.916416
MEAN_MOTION    = 14.35506747
ECCENTRICITY   = .0002505
INCLINATION    = 98.8598
RA_OF_ASC_NODE = 250.6839
ARG_OF_PERICENTER = 35.3928
MEAN_ANOMALY   = 324.7423

EPHEMERIS_TYPE = 0
CLASSIFICATION_TYPE = U
NORAD_CAT_ID   = 24883
ELEMENT_SET_NO = 999
REV_AT_EPOCH   = 51094
BSTAR          = .12419E-3
MEAN_MOTION_DOT = .311E-5
MEAN_MOTION_DDOT = 0

CCSDS_OMM_VERS = 2.0
CREATION_DATE  = 
ORIGINATOR     = 

OBJECT_NAME    = SL-16 R/B
OBJECT_ID      = 1998-043G
CENTER_NAME    = EARTH
REF_FRAME      = TEME
TIME_SYSTEM    = UTC
MEAN_ELEMENT_THEORY = SGP/SGP4

EPOCH          = 2026-03-26T08:38:48.624000
MEAN_MOTION    = 14.26053525
ECCENTRICITY   = .0009328
INCLINATION    = 98.8282
RA_OF_ASC_NODE = 38.8447
ARG_OF_PERICENTER = 332.1155
MEAN_ANOMALY   = 27.9523

EPHEMERIS_TYPE = 0
CLASSIFICATION_TYPE = U
NORAD_CAT_ID   = 25400
ELEMENT_SET_NO = 999
REV_AT_EPOCH   = 44136
BSTAR          = .51813E-4
MEAN_MOTION_DOT = .78E-6
MEAN_MOTION_DDOT = 0

